OBJECT_NAME,OBJECT_ID,EPOCH,MEAN_MOTION,ECCENTRICITY,INCLINATION,RA_OF_ASC_NODE,ARG_OF_PERICENTER,MEAN_ANOMALY,EPHEMERIS_TYPE,CLASSIFICATION_TYPE,NORAD_CAT_ID,ELEMENT_SET_NO,REV_AT_EPOCH,BSTAR,MEAN_MOTION_DOT,MEAN_MOTION_DDOT
STARLINK-37833,2026-122D,2026-06-11T22:00:01.999584,15.86038825,.00016295,97.2833,192.0668,67.1504,6.8476,0,U,69332,999,245,-.11411376E-1,-.241996E-1,0
STARLINK-37818,2026-122E,2026-06-11T22:00:01.999584,15.84075489,.00013561,97.2838,192.0643,57.0641,11.4900,0,U,69333,999,250,-.12055991E-1,-.2281725E-1,0
STARLINK-37868,2026-122F,2026-06-11T22:00:01.999584,15.87638633,.00013524,97.2837,192.0694,67.9017,13.5899,0,U,69334,999,250,-.47577604E-2,-.1112005E-1,0
STARLINK-37877,2026-122G,2026-06-11T22:00:01.999584,15.87629774,.00013751,97.2836,192.0697,68.5988,13.7174,0,U,69335,999,250,-.47787535E-2,-.1115915E-1,0
STARLINK-37791,2026-122H,2026-06-11T22:00:01.999584,15.87973983,.00012949,97.2838,192.0714,65.7612,19.6338,0,U,69336,999,250,-.2598701E-2,-.650755E-2,0
STARLINK-37765,2026-122J,2026-06-11T22:00:01.999584,15.88402743,.00011922,97.2841,192.0752,65.7931,28.7349,0,U,69337,999,255,-.25050378E-2,-.641432E-2,0
STARLINK-37788,2026-122K,2026-06-11T22:00:01.999584,15.87989553,.00012457,97.2845,192.0783,68.8617,32.7307,0,U,69338,999,250,-.26875605E-2,-.671939E-2,0
STARLINK-37743,2026-122L,2026-06-11T22:00:01.999584,15.87164846,.00015837,97.2846,192.0782,68.3077,34.9839,0,U,69339,999,250,-.10957242E-1,-.2389799E-1,0
STARLINK-37780,2026-122M,2026-06-11T22:00:01.999584,15.87657712,.00016689,97.2846,192.0798,68.2473,38.0494,0,U,69340,999,255,-.10432316E-1,-.2341746E-1,0
STARLINK-37781,2026-122N,2026-06-11T22:00:01.999584,15.85846921,.00016719,97.2845,192.0778,69.0547,33.4011,0,U,69341,999,250,-.11297028E-1,-.2322431E-1,0
STARLINK-37782,2026-122P,2026-06-11T22:00:01.999584,15.89275210,.00013837,97.2847,192.0850,72.2109,45.4492,0,U,69342,999,250,-.43126449E-2,-.1096127E-1,0
STARLINK-37776,2026-122Q,2026-06-11T22:00:01.999584,15.89430424,.00014157,97.2848,192.0862,70.8261,50.5179,0,U,69343,999,250,-.42888653E-2,-.1234184E-1,.43349065E-3
STARLINK-37786,2026-122R,2026-06-11T22:00:01.999584,15.89893088,.00013335,97.2856,192.0905,74.7344,55.9962,0,U,69344,999,250,-.41708133E-2,-.1228357E-1,.43164481E-3
STARLINK-37785,2026-122S,2026-06-11T22:00:01.999584,15.89883681,.00013498,97.2853,192.0906,73.1582,58.3772,0,U,69345,999,250,-.41782284E-2,-.1229949E-1,.43264194E-3
STARLINK-37773,2026-122T,2026-06-11T22:00:01.999584,15.90548295,.00013493,97.2857,192.0930,70.6257,66.1407,0,U,69346,999,255,-.20646839E-2,-.631031E-2,.12552167E-3
STARLINK-37744,2026-122U,2026-06-11T22:00:01.999584,15.90122721,.0001036,97.2859,192.0946,82.2952,59.1228,0,U,69347,999,250,-.21319053E-2,-.637682E-2,.12745562E-3
STARLINK-37775,2026-122V,2026-06-11T22:00:01.999584,15.90484235,.0001719,97.2860,192.0962,82.7005,60.3214,0,U,69348,999,250,-.91717604E-2,-.2760625E-1,.19969571E-2
STARLINK-37777,2026-122W,2026-06-11T22:00:01.999584,15.90588596,.00018446,97.2863,192.0985,82.4548,66.3127,0,U,69349,999,250,-.89455268E-2,-.270696E-1,.19228374E-2
STARLINK-37779,2026-122X,2026-06-11T22:00:01.999584,15.89812477,.00018081,97.2866,192.1021,78.5251,78.6126,0,U,69350,999,250,-.92271054E-2,-.2685135E-1,.18759024E-2
STARLINK-37549,2026-122Y,2026-06-11T22:00:01.999584,15.87956790,.00017516,97.2868,192.1003,82.0425,70.3588,0,U,69351,999,250,-.1029748E-1,-.2345708E-1,0
STARLINK-37778,2026-122Z,2026-06-11T22:00:01.999584,15.91006286,.00018276,97.2868,192.1035,82.4656,78.2400,0,U,69352,999,250,-.88781469E-2,-.2744025E-1,.19849424E-2
STARLINK-37651,2026-123A,2026-06-11T22:00:01.999584,15.87437433,.00007963,53.1577,268.2606,61.6234,232.4007,0,U,69353,999,230,-.78056308E-2,-.1813427E-1,0
STARLINK-37652,2026-123B,2026-06-11T22:00:01.999584,15.86170886,.00006694,53.1576,268.2595,68.0341,226.5159,0,U,69354,999,230,-.83708019E-2,-.182381E-1,0
STARLINK-37593,2026-123C,2026-06-11T22:00:01.999584,15.86340552,.00009006,53.1577,268.2507,67.8716,230.9801,0,U,69355,999,235,-.84084795E-2,-.1886106E-1,0
STARLINK-37597,2026-123D,2026-06-11T22:00:01.999584,15.86744974,.00007284,53.1576,268.2358,64.6253,241.3821,0,U,69356,999,235,-.81263437E-2,-.1822108E-1,0
STARLINK-37598,2026-123E,2026-06-11T22:00:01.999584,15.87362982,.00008212,53.1574,268.2189,63.5316,250.6731,0,U,69357,999,235,-.76701493E-2,-.1780847E-1,0
STARLINK-37602,2026-123F,2026-06-11T22:00:01.999584,15.87489221,.00008284,53.1574,268.2102,67.8710,250.6235,0,U,69358,999,235,-.76930235E-2,-.1795088E-1,0
STARLINK-37600,2026-123G,2026-06-11T22:00:01.999584,15.88331925,.00008084,53.1572,268.1867,66.5183,263.2705,0,U,69359,999,235,-.72923326E-2,-.1778234E-1,0
STARLINK-37599,2026-123H,2026-06-11T22:00:01.999584,15.91156653,.00006885,53.1573,268.1539,64.3306,281.2461,0,U,69360,999,230,-.65739546E-2,-.2121016E-1,.1204135E-2
